LEMUR-1                 
1 40044U 14033AL  26168.36131115  .00001695  00000+0  19953-3 0  9997
2 40044  97.7876 318.1624 0049677  78.0722 282.6056 14.85247306645499
LEMUR-2-GREENBERG       
1 42837U 17042N   26168.47908919  .00012423  00000+0  41240-3 0  9993
2 42837  97.3816 349.1017 0008508  13.0067 347.1392 15.31334775488438
LEMUR-2-ANDIS           
1 42838U 17042P   26168.05134780  .00018164  00000+0  53887-3 0  9993
2 42838  97.3672 348.8597 0008175  12.8795 347.2655 15.34838886488431
LEMUR-2-MONSON          
1 42839U 17042Q   26168.48849161  .00010574  00000+0  38928-3 0  9993
2 42839  97.4076 349.0830 0006184   5.1720 354.9582 15.28016395488211
LEMUR-2-FURIAUS         
1 42840U 17042R   26168.47308843  .00013294  00000+0  45598-3 0  9994
2 42840  97.3768 347.0502 0008176  68.3707 291.8403 15.30258907488258
LEMUR-2-PETERG          
1 42841U 17042S   26168.49206058  .00015393  00000+0  47149-3 0  9998
2 42841  97.3987 353.5221 0003207 355.8893   4.2323 15.33891942488489
LEMUR-2-DEMBITZ         
1 42842U 17042T   26168.49296178  .00012577  00000+0  43118-3 0  9994
2 42842  97.3822 350.0943 0006728  27.8027 332.3572 15.30300449488392
LEMUR-2-ZACHARY         
1 42845U 17042W   26168.51275701  .00037119  00000+0  65522-3 0  9991
2 42845  97.3591   0.1557 0002877  31.4744 328.6679 15.50284724489251
LEMUR-2-AMANDA-SVANTE   
1 48269U 21034B   26168.16182764  .00024876  00000+0  75004-3 0  9992
2 48269  97.5763 246.4469 0002281 208.6584 151.4534 15.34295332281055
LEMUR-2-SPECIAL-K       
1 48273U 21034F   26168.14937972  .00126504  00000+0  13010-2 0  9993
2 48273  97.5654 255.0033 0004318 228.4690 131.6199 15.64459645281681
LEMUR-2-EMBRIONOVIS     
1 56970U 23084AQ  26168.33188497  .00010473  00000+0  28630-3 0  9996
2 56970  97.6296 312.5361 0007732 319.5567  40.5101 15.37551092167704
LEMUR-2-DEVERILL-M-T    
1 57391U 23100F   26168.03986424  .00023898  00000+0  60519-3 0  9993
2 57391  99.4463 206.7553 0006340  50.5379 309.6420 15.39749302161221
LEMUR-2-BASS            
1 58259U 23174D   26168.14541446  .00013747  00000+0  31247-3 0  9999
2 58259  97.3850 252.8569 0007726 162.2720 197.8799 15.43093407145356
LEMUR-2-JK0903EM1407    
1 58336U 23174CJ  26167.75681777  .00022153  00000+0  37361-3 0  9997
2 58336  97.3927 258.2139 0005786 121.1436 239.0384 15.51662320145660
LEMUR-2-MJR092620       
1 58340U 23174CN  26168.48262560  .00015465  00000+0  33072-3 0  9991
2 58340  97.3979 258.5168 0007145 116.8150 243.3830 15.44883841145694
LEMUR-2-NIMBUS2000      
1 58899U 24022A   26168.46866810  .00013719  00000+0  34512-3 0  9999
2 58899  97.4103  18.4733 0010354 114.9790 245.2532 15.40003355132314
LEMUR-2-VALHALLA        
1 58900U 24022B   26168.52993709  .00012802  00000+0  32560-3 0  9990
2 58900  97.4101  18.5257 0010869 110.9404 249.3006 15.39680570132326
LEMUR-2-CAEL            
1 58903U 24022E   26168.14985638  .00013658  00000+0  33296-3 0  9990
2 58903  97.4083  19.0769 0009267  97.5488 262.6811 15.40973123132338
LEMUR-2-JOHNNYTRUONG    
1 59146U 24043BA  26168.40654851  .00033183  00000+0  40360-3 0  9997
2 59146  97.5382 320.1225 0004827 175.9069 184.2228 15.60479347128075
LEMUR-2-TOMATOKECHUP    
1 60471U 24149D   26167.97704351  .00009737  00000+0  27977-3 0  9996
2 60471  97.3803 250.0230 0001440 175.8194 184.3062 15.36030247102138
LEMUR-2-STELLA          
1 60533U 24149BT  26168.14795990  .00008720  00000+0  51415-3 0  9999
2 60533  97.6740 250.6025 0001709  95.8157 264.3268 15.11810973100495
LEMUR-2-MARHISYAM       
1 60536U 24149BW  26168.45931904  .00008613  00000+0  51561-3 0  9996
2 60536  97.6879 251.3643 0003282 117.9577 242.1985 15.11264745100529
LEMUR-2-AHMED-ASRAR     
1 60576U 24149DN  26168.16245971  .00008917  00000+0  51271-3 0  9995
2 60576  97.7011 253.1588 0001881  44.7599 315.3783 15.12714446100566
LEMUR-2-LLOYD           
1 60577U 24149DP  26168.04228244  .00009606  00000+0  60720-3 0  9992
2 60577  97.6748 249.1706 0004788 141.0187 219.1387 15.09237949100377
LEMUR-2-SQUIRRELCOMM    
1 60578U 24149DQ  26168.45460649  .00004605  00000+0  31040-3 0  9992
2 60578  97.6706 249.3647 0006290  60.5961 299.5894 15.07150992100446
LEMUR-2-SIERRINI        
1 60579U 24149DR  26168.15177786  .00008352  00000+0  50436-3 0  9990
2 60579  97.6845 250.7436 0005874 164.0442 196.0973 15.10947089100459
LEMUR-2-WILSON          
1 62694U 25009CP  26168.16192792  .00002233  00000+0  20851-3 0  9991
2 62694  97.7025 246.6268 0004257  58.7754 301.3884 14.95165085 77350
LEMUR-2-STAR-FOX        
1 62696U 25009CR  26168.15937848  .00006023  00000+0  45790-3 0  9991
2 62696  97.6956 249.7680 0003852 111.6733 248.4902 15.02504429 77554
LEMUR-2-ARIANNA         
1 62699U 25009CU  26168.15771752  .00005975  00000+0  45456-3 0  9998
2 62699  97.6895 249.5413 0004230 117.1929 242.9727 15.02485733 77550
LEMUR-2-ALISIA          
1 62706U 25009DB  26167.73611669  .00005865  00000+0  44306-3 0  9991
2 62706  97.6956 249.9090 0001968 191.4316 168.6864 15.02764457100097
